[{"OBJECT_NAME":"STARLINK-32238","OBJECT_ID":"2024-193A","EPOCH":"2026-03-09T11:48:06.637536","MEAN_MOTION":15.30192435,"ECCENTRICITY":0.00010347,"INCLINATION":53.1598,"RA_OF_ASC_NODE":92.1191,"ARG_OF_PERICENTER":83.4153,"MEAN_ANOMALY":276.6966,"EPHEMERIS_TYPE":0,"CLASSIFICATION_TYPE":"U","NORAD_CAT_ID":61661,"ELEMENT_SET_NO":999,"REV_AT_EPOCH":7649,"BSTAR":2.3049768e-5,"MEAN_MOTION_DOT":3.24e-6,"MEAN_MOTION_DDOT":0},{"OBJECT_NAME":"JIELONG-3 R\/B","OBJECT_ID":"2026-027H","EPOCH":"2026-03-09T22:52:28.951104","MEAN_MOTION":15.76303399,"ECCENTRICITY":0.02123753,"INCLINATION":97.5118,"RA_OF_ASC_NODE":200.0017,"ARG_OF_PERICENTER":243.897,"MEAN_ANOMALY":114.0305,"EPHEMERIS_TYPE":0,"CLASSIFICATION_TYPE":"U","NORAD_CAT_ID":67753,"ELEMENT_SET_NO":999,"REV_AT_EPOCH":402,"BSTAR":0.00072450109,"MEAN_MOTION_DOT":0.00557901,"MEAN_MOTION_DDOT":2.368277e-6}]
